NORAD_CAT_ID,OBJECT_NAME,OBJECT_TYPE,EPOCH,MEAN_MOTION,ECCENTRICITY,INCLINATION,RA_OF_ASC_NODE,ARG_OF_PERICENTER,MEAN_ANOMALY,BSTAR,MEAN_MOTION_DOT,MEAN_MOTION_DDOT,TLE_LINE0,TLE_LINE1,TLE_LINE2,SEMIMAJOR_AXIS,PERIOD,APOGEE,PERIGEE,DECAYED
52376.0,STARLINK-3767,PAYLOAD,2022-09-15 22:18:07,15.08858871,0.0001621,53.2173,133.7722,54.723,305.3914,-0.00018719,-3.268e-05,0.0,0 STARLINK-3767,1 52376U 22045AX  22258.92925532 -.00003268  00000-0 -18719-3 0  9992,2 52376  53.2173 133.7722 0001621  54.7230 305.3914 15.08858871 24082,6917.823,95.436,540.809,538.566,0.0
52376.0,STARLINK-3767,PAYLOAD,2022-09-16 01:28:54,15.08842721,0.0001804,53.2175,133.1782,56.727,303.3895,9.2256e-05,1.181e-05,0.0,0 STARLINK-3767,1 52376U 22045AX  22259.06173625  .00001181  00000-0  92256-4 0  9995,2 52376  53.2175 133.1782 0001804  56.7270 303.3895 15.08842721 24109,6917.871999999999,95.437,540.985,538.489,0.0
52376.0,STARLINK-3767,PAYLOAD,2022-09-16 20:33:31,15.0883677,0.0001748,53.2172,129.6102,51.3672,308.7477,6.1516e-05,6.91e-06,0.0,0 STARLINK-3767,1 52376U 22045AX  22259.85661992  .00000691  00000-0  61516-4 0  9991,2 52376  53.2172 129.6102 0001748  51.3672 308.7477 15.08836770 24221,6917.89,95.438,540.965,538.5459999999998,0.0
52376.0,STARLINK-3767,PAYLOAD,2022-09-17 01:19:41,15.08838202,0.0001798,53.2179,128.7211,49.9281,310.1869,1.044e-05,-1.22e-06,0.0,0 STARLINK-3767,1 52376U 22045AX  22260.05534235 -.00000122  00000-0  10440-4 0  9994,2 52376  53.2179 128.7211 0001798  49.9281 310.1869 15.08838202 24250,6917.886,95.438,540.995,538.507,0.0
52376.0,STARLINK-3767,PAYLOAD,2022-09-17 20:24:19,15.08836559,0.0001754999999999,53.2169,125.15,51.8636,308.2514,-1.8512e-05,-5.83e-06,0.0,0 STARLINK-3767,1 52376U 22045AX  22260.85022580 -.00000583  00000-0 -18512-4 0  9997,2 52376  53.2169 125.1500 0001755  51.8636 308.2514 15.08836559 24371,6917.891,95.438,540.97,538.5419999999998,0.0
52376.0,STARLINK-3767,PAYLOAD,2022-09-17 21:59:42,15.08836593,0.0001754999999999,53.2168,124.8527,52.0861,308.0289,-1.1852e-05,-4.77e-06,0.0,0 STARLINK-3767,1 52376U 22045AX  22260.91646568 -.00000477  00000-0 -11852-4 0  9994,2 52376  53.2168 124.8527 0001755  52.0861 308.0289 15.08836593 24384,6917.891,95.438,540.97,538.5419999999998,0.0
52376.0,STARLINK-3767,PAYLOAD,2022-09-18 20:15:05,15.08845159,0.0001704,53.217,120.6893,52.377,307.7376,8.3346e-05,1.039e-05,0.0,0 STARLINK-3767,1 52376U 22045AX  22261.84381696  .00001039  00000-0  83346-4 0  9995,2 52376  53.2170 120.6893 0001704  52.3770 307.7376 15.08845159 24520,6917.865,95.437,540.908,538.5509999999998,0.0
52376.0,STARLINK-3767,PAYLOAD,2022-09-19 01:01:15,15.08840136,0.0001732,53.2173,119.7979,54.115,306.0003,4.4519e-05,4.21e-06,0.0,0 STARLINK-3767,1 52376U 22045AX  22262.04254171  .00000421  00000-0  44519-4 0  9998,2 52376  53.2173 119.7979 0001732  54.1150 306.0003 15.08840136 24552,6917.88,95.438,540.943,538.547,0.0
52376.0,STARLINK-3767,PAYLOAD,2022-09-19 07:22:48,15.08839001,0.0001686,53.2171,118.6081,54.7446,305.3703,1.5711e-05,-3.8e-07,0.0,0 STARLINK-3767,1 52376U 22045AX  22262.30750313 -.00000038  00000-0  15711-4 0  9993,2 52376  53.2171 118.6081 0001686  54.7446 305.3703 15.08839001 24596,6917.8830000000025,95.438,540.915,538.582,0.0
52376.0,STARLINK-3767,PAYLOAD,2022-09-19 16:55:07,15.08836837,0.0001766,53.2173,116.8242,56.4677,303.6484,3.8639e-05,3.27e-06,0.0,0 STARLINK-3767,1 52376U 22045AX  22262.70494601  .00000327  00000-0  38639-4 0  9996,2 52376  53.2173 116.8242 0001766  56.4677 303.6484 15.08836837 24659,6917.89,95.438,540.977,538.533,0.0
52376.0,STARLINK-3767,PAYLOAD,2022-09-20 00:52:03,15.08829197,0.0001726,53.2166,115.3363,51.3788,308.7359,-3.4682e-05,-8.400000000000001e-06,0.0,0 STARLINK-3767,1 52376U 22045AX  22263.03615433 -.00000840  00000-0 -34682-4 0  9997,2 52376  53.2166 115.3363 0001726  51.3788 308.7359 15.08829197 24706,6917.913000000001,95.438,540.972,538.5840000000002,0.0
52376.0,STARLINK-3767,PAYLOAD,2022-09-20 16:45:54,15.08842386,0.0001716,53.2165,112.3623,52.6953,307.4195,-4.9676e-05,-1.079e-05,0.0,0 STARLINK-3767,1 52376U 22045AX  22263.69854854 -.00001079  00000-0 -49676-4 0  9995,2 52376  53.2165 112.3623 0001716  52.6953 307.4195 15.08842386 24808,6917.873000000001,95.437,540.925,538.5509999999998,0.0
52376.0,STARLINK-3767,PAYLOAD,2022-09-21 16:36:40,15.08843152,0.0001517,53.2172,107.9013,50.4812,309.6314,0.00013611,1.879e-05,0.0,0 STARLINK-3767,1 52376U 22045AX  22264.69214109  .00001879  00000-0  13611-3 0  9994,2 52376  53.2172 107.9013 0001517  50.4812 309.6314 15.08843152 24953,6917.871,95.437,540.785,538.686,0.0
52376.0,STARLINK-3767,PAYLOAD,2022-09-22 02:09:00,15.08833903,0.0001483,53.2176,106.1174,48.8516,311.2604,7.5794e-05,9.18e-06,0.0,0 STARLINK-3767,1 52376U 22045AX  22265.08958990  .00000918  00000-0  75794-4 0  9995,2 52376  53.2176 106.1174 0001483  48.8516 311.2604 15.08833903 25012,6917.899,95.438,540.79,538.738,0.0
52376.0,STARLINK-3767,PAYLOAD,2022-09-22 06:55:09,15.088700400000002,0.0001498,53.2181,105.2249,40.5018,319.6086,-0.00042978,-7.127e-05,0.0,0 STARLINK-3767,1 52376U 22045AX  22265.28830182 -.00007127  00000-0 -42978-3 0  9997,2 52376  53.2181 105.2249 0001498  40.5018 319.6086 15.08870040 25045,6917.7890000000025,95.436,540.69,538.617,0.0
52376.0,STARLINK-3767,PAYLOAD,2022-09-22 19:38:15,15.08835208,0.0001408,53.2186,102.8459,47.0638,313.0472,-4.681899999999999e-05,-1.033e-05,0.0,0 STARLINK-3767,1 52376U 22045AX  22265.81823552 -.00001033  00000-0 -46819-4 0  9998,2 52376  53.2186 102.8459 0001408  47.0638 313.0472 15.08835208 25120,6917.895,95.438,540.734,538.786,0.0
52376.0,STARLINK-3767,PAYLOAD,2022-09-23 19:29:01,15.08843559,0.0001761,53.2175,98.3869,52.508,307.6072,0.00010342,1.358e-05,0.0,0 STARLINK-3767,1 52376U 22045AX  22266.81182330  .00001358  00000-0  10342-3 0  9990,2 52376  53.2175  98.3869 0001761  52.5080 307.6072 15.08843559 25275,6917.87,95.437,540.953,538.516,0.0
52376.0,STARLINK-3767,PAYLOAD,2022-09-23 22:39:48,15.08833599,0.0001826,53.2169,97.7917,54.6392,305.4771,4.1132e-05,3.66e-06,0.0,0 STARLINK-3767,1 52376U 22045AX  22266.94431166  .00000366  00000-0  41132-4 0  9998,2 52376  53.2169  97.7917 0001826  54.6392 305.4771 15.08833599 25293,6917.9,95.438,541.028,538.502,0.0
52376.0,STARLINK-3767,PAYLOAD,2022-09-24 19:19:48,15.08844552,0.0001793,53.2178,93.926,59.4548,300.6621,7.3947e-05,8.89e-06,0.0,0 STARLINK-3767,1 52376U 22045AX  22267.80542639  .00000889  00000-0  73947-4 0  9991,2 52376  53.2178  93.9260 0001793  59.4548 300.6621 15.08844552 25428,6917.866,95.437,540.972,538.491,0.0
52376.0,STARLINK-3767,PAYLOAD,2022-09-24 22:30:34,15.08846682,0.0001803,53.2176,93.3313,58.2897,301.827,9.3209e-05,1.196e-05,0.0,0 STARLINK-3767,1 52376U 22045AX  22267.93790445  .00001196  00000-0  93209-4 0  9990,2 52376  53.2176  93.3313 0001803  58.2897 301.8270 15.08846682 25446,6917.86,95.437,540.972,538.4780000000002,0.0
52376.0,STARLINK-3767,PAYLOAD,2022-09-25 17:35:13,15.08841322,0.0001819,53.2188,89.7644,64.3517,295.7663,-1.8854e-05,-5.88e-06,0.0,0 STARLINK-3767,1 52376U 22045AX  22268.73279010 -.00000588  00000-0 -18854-4 0  9998,2 52376  53.2188  89.7644 0001819  64.3517 295.7663 15.08841322 25565,6917.876,95.437,541.0,538.4830000000002,0.0
52376.0,STARLINK-3767,PAYLOAD,2022-09-25 19:10:36,15.08833223,0.0001729,53.2184,89.4647,60.3852,299.7313,7.6171e-05,9.24e-06,0.0,0 STARLINK-3767,1 52376U 22045AX  22268.79903265  .00000924  00000-0  76171-4 0  9998,2 52376  53.2184  89.4647 0001729  60.3852 299.7313 15.08833223 25577,6917.901,95.438,540.962,538.57,0.0
52376.0,STARLINK-3767,PAYLOAD,2022-09-26 04:42:54,15.08840975,0.0001908,53.2184,87.6806,57.8864,302.2313,8.816799999999998e-07,-2.74e-06,0.0,0 STARLINK-3767,1 52376U 22045AX  22269.19646980 -.00000274  00000-0  88168-6 0  9991,2 52376  53.2184  87.6806 0001908  57.8864 302.2313 15.08840975 25636,6917.877,95.437,541.062,538.422,0.0
52376.0,STARLINK-3767,PAYLOAD,2022-09-26 19:01:24,15.08832536,0.0001742,53.2184,85.0043,65.8362,294.2812,-5.9519e-05,-1.235e-05,0.0,0 STARLINK-3767,1 52376U 22045AX  22269.79264062 -.00001235  00000-0 -59519-4 0  9999,2 52376  53.2184  85.0043 0001742  65.8362 294.2812 15.08832536 25727,6917.903,95.438,540.9730000000002,538.563,0.0
52376.0,STARLINK-3767,PAYLOAD,2022-09-26 22:12:10,15.08830393,0.0001671,53.2177,84.4097,66.4197,293.697,-9.7357e-05,-1.837e-05,0.0,0 STARLINK-3767,1 52376U 22045AX  22269.92512351 -.00001837  00000-0 -97357-4 0  9991,2 52376  53.2177  84.4097 0001671  66.4197 293.6970 15.08830393 25744,6917.91,95.438,540.931,538.619,0.0
52376.0,STARLINK-3767,PAYLOAD,2022-09-28 10:46:01,15.08847062,0.0001938,53.2178,77.5709,57.2218,302.896,0.00010458,1.377e-05,0.0,0 STARLINK-3767,1 52376U 22045AX  22271.44863214  .00001377  00000-0  10458-3 0  9991,2 52376  53.2178  77.5709 0001938  57.2218 302.8960 15.08847062 25974,6917.859,95.437,541.064,538.383,0.0
52376.0,STARLINK-3767,PAYLOAD,2022-09-29 04:15:17,15.08836765,0.0001665999999999,53.2168,74.2998,53.7753,306.3393,0.000101,1.32e-05,0.0,0 STARLINK-3767,1 52376U 22045AX  22272.17728333  .00001320  00000-0  10100-3 0  9996,2 52376  53.2168  74.2998 0001666  53.7753 306.3393 15.08836765 26080,6917.89,95.438,540.908,538.6030000000002,0.0
52376.0,STARLINK-3767,PAYLOAD,2022-09-29 10:36:48,15.08851277,0.0001422,53.2184,73.111,49.452,310.6596,0.00015572,2.192e-05,0.0,0 STARLINK-3767,1 52376U 22045AX  22272.44223073  .00002192  00000-0  15572-3 0  9993,2 52376  53.2184  73.1110 0001422  49.4520 310.6596 15.08851277 26129,6917.846,95.437,540.695,538.727,0.0
52376.0,STARLINK-3767,PAYLOAD,2022-09-30 04:06:03,15.08846742,0.0001771,53.2184,69.8389,55.041,305.0748,0.00010592,1.398e-05,0.0,0 STARLINK-3767,1 52376U 22045AX  22273.17087504  .00001398  00000-0  10592-3 0  9995,2 52376  53.2184  69.8389 0001771  55.0410 305.0748 15.08846742 26237,6917.86,95.437,540.95,538.5,0.0
